DIRECTV 5 (TEMPO 1)     
1 27426U 02023A   21341.49424394 -.00000054  00000+0  00000+0 0  9996
2 27426   0.6467  95.3074 0003299 171.7466 237.2493  1.00271713 71559
INTELSAT 905 (IS-905)   
1 27438U 02027A   21341.38823769 -.00000183  00000+0  00000+0 0  9993
2 27438   2.5823  88.7041 0002578 156.3880 306.5532  1.00271676 34794
GALAXY 3C (G-3C)        
1 27445U 02030A   21341.16664094 -.00000148  00000+0  00000+0 0  9996
2 27445   0.0180 313.1275 0001599  19.6661  68.3221  1.00268867 29920
EUTELSAT 5 WEST A       
1 27460U 02035A   21341.32038182 -.00000041  00000+0  00000+0 0  9991
2 27460   1.8458  91.4201 0005512 166.6636 288.5732  1.00271835 71045
METEOSAT-8 (MSG-1)      
1 27509U 02040B   21340.82725442  .00000134  00000+0  00000+0 0  9999
2 27509   7.6857  51.6527 0001812 166.6528 196.9552  1.00281323 70688
INTELSAT 906 (IS-906)   
1 27513U 02041A   21341.40594301  .00000015  00000+0  00000+0 0  9996
2 27513   1.5922  92.6921 0003144 167.7806  26.2345  1.00273531 70455
HISPASAT 30W-4          
1 27528U 02044A   21341.50816288  .00000118  00000+0  00000+0 0  9991
2 27528   2.3662  88.9045 0003510 175.8683 211.6218  1.00272126 26400
TDRS 10                 
1 27566U 02055A   21341.43080022  .00000087  00000+0  00000+0 0  9991
2 27566   7.8549  51.0030 0005505 304.6524  64.7977  1.00265556 69666
NSS-6                   
1 27603U 02057A   21341.52271536  .00000109  00000+0  00000+0 0  9992
2 27603   1.1297  93.7640 0003061 158.5171 202.9176  1.00268272 69478
NIMIQ 2                 
1 27632U 02062A   21341.25980447 -.00000228  00000+0  00000+0 0  9991
2 27632   5.5633  72.0032 0004253 241.1840 190.1700  1.00022716 27615
USA 167                 
1 27691U 03008A   21341.54104340  .00000053  00000+0  00000+0 0  9994
2 27691   7.6698  55.8094 0000765   2.0665  83.2298  1.00270153 16380
USA 169 (MILSTAR-2 4)   
1 27711U 03012A   21341.49525458 -.00000197  00000+0  00000+0 0  9993
2 27711   9.8412  41.4581 0002682 204.5379 160.9193  1.00272702 16383
GALAXY 12 (G-12)        
1 27715U 03013B   21341.53048362  .00000059  00000+0  00000+0 0  9993
2 27715   2.7954  87.4994 0001879 181.1888 229.8115  1.00272312 35523
ASIASAT 4               
1 27718U 03014A   21341.54427128  .00000155  00000+0  00000+0 0  9996
2 27718   0.4874  96.7178 0001941 162.6743  51.2641  1.00270569 28720
HELLAS-SAT 2            
1 27811U 03020A   21341.51775691 -.00000150  00000+0  00000+0 0  9991
2 27811   3.2129  86.6098 0004380 173.7805 267.3190  1.00270452 26277
THURAYA-2               
1 27825U 03026A   21341.28104905  .00000127  00000+0  00000+0 0  9993
2 27825   6.5033  34.1674 0004533 188.6026 358.6841  1.00269052 67771
OPTUS C1                
1 27831U 03028B   21341.58174333 -.00000150  00000+0  00000+0 0  9994
2 27831   2.7239  88.5243 0005525 163.1461 190.0415  1.00269507 36486
GALAXY 23 (G-23)        
1 27854U 03034A   21341.49979851  .00000015  00000+0  00000+0 0  9993
2 27854   0.0088  88.3976 0003023 165.9359 241.1094  1.00271638 67171
USA 170                 
1 27875U 03040A   21341.21528674 -.00000274  00000+0  00000+0 0  9994
2 27875   6.9821  61.1735 0002826 164.4120 245.7106  1.00265448 16390
GALAXY 13 (HORIZONS 1)  
1 27954U 03044A   21341.51138997  .00000050  00000+0  00000+0 0  9995
2 27954   0.0066  15.9385 0001434 346.1884 131.4788  1.00272339 30000
YAMAL 202               
1 28089U 03053A   21340.77982425 -.00000075  00000+0  00000+0 0  9993
2 28089   2.1530  89.9716 0003622 126.2202 303.9034  1.00272559 66104
UFO 11 (USA 174)        
1 28117U 03057A   21341.22063301 -.00000094  00000+0  00000+0 0  9994
2 28117   6.7228  37.9084 0001100 285.5179 266.7271  1.00272717 65870
USA 176 (DSP 22)        
1 28158U 04004A   21341.49687307 -.00000220  00000+0  00000+0 0  9990
2 28158   9.8448  36.3219 0000696 238.2189  68.0919  1.00267708 16356
ABS-4 (MOBISAT-1)       
1 28184U 04007A   21341.54889385  .00000041  00000+0  00000+0 0  9998
2 28184   1.8419  91.2167 0005418 166.9398  76.9778  1.00273250 35769
EUTELSAT 7A             
1 28187U 04008A   21341.50894785  .00000106  00000+0  00000+0 0  9990
2 28187   1.6312  89.8006 0004149 162.5212 228.1824  1.00271009 64781
AMC-11 (GE-11)          
1 28252U 04017A   21341.51060500  .00000071  00000+0  00000+0 0  9995
2 28252   0.0264  43.1360 0002529 216.8625 229.3221  1.00271134 64312
INTELSAT 10-02          
1 28358U 04022A   21341.03660684 -.00000008  00000+0  00000+0 0  9995
2 28358   0.0201  51.2622 0000636 245.7092 151.2693  1.00272575 63974
ANIK F2                 
1 28378U 04027A   21341.07116053 -.00000046  00000+0  00000+0 0  9994
2 28378   0.0558  91.3192 0000930   7.4893 251.8138  1.00270772 24680
AMC-15                  
1 28446U 04041A   21341.49424394 -.00000087  00000+0  00000+0 0  9997
2 28446   0.0264  36.3734 0002643 226.5271 246.4685  1.00270605 62750
NSS-10 (AMC-12)         
1 28526U 05003A   21341.38570837 -.00000249  00000+0  00000+0 0  9997
2 28526   2.3114  89.3329 0002741 153.6095 294.8361  1.00271306 36588
XTAR-EUR                
1 28542U 05005A   21340.70912586  .00000155  00000+0  00000+0 0  9998
2 28542   0.0964  97.4273 0002415 154.8975 107.6613  1.00271003 61617
XM-3 (RHYTHM)           
1 28626U 05008A   21341.37620155 -.00000203  00000+0  00000+0 0  9991
2 28626   0.0447 140.3910 0000855 307.0847  39.2482  1.00268440 26052
INMARSAT 4-F1           
1 28628U 05009A   21341.49632748 -.00000261  00000+0  00000+0 0  9992
2 28628   3.4774  32.9991 0002492 223.8714 141.7931  1.00270558 61102
DIRECTV 8               
1 28659U 05019A   21341.52848108  .00000003  00000+0  00000+0 0  9993
2 28659   0.0121 300.5831 0002726 316.6049 250.5451  1.00271648 60504
GALAXY 28 (G-28)        
1 28702U 05022A   21341.51897796 -.00000183  00000+0  00000+0 0  9992
2 28702   0.0076 358.6591 0001074 306.3729 229.3172  1.00270026 35409
EXPRESS-AM3             
1 28707U 05023A   21341.54488181  .00000134  00000+0  00000+0 0  9990
2 28707   3.1103  85.6618 0001634 104.5606 123.6140  1.00459012 60267
THAICOM 4               
1 28786U 05028A   21341.56507578 -.00000361  00000+0  00000+0 0  9999
2 28786   0.0160   1.7921 0002424 246.9514 150.7593  1.00272599 35680
GALAXY 14 (G-14)        
1 28790U 05030A   21341.54322466  .00000157  00000+0  00000+0 0  9998
2 28790   0.7816  94.0056 0001894 154.7103  56.2847  1.00269076 59734
ANIK F1R                
1 28868U 05036A   21341.49424394 -.00000072  00000+0  00000+0 0  9994
2 28868   0.0835  89.5898 0001278 188.4329 229.0844  1.00271132 29883
GALAXY 15 (G-15)        
1 28884U 05041A   21341.51016892  .00000081  00000+0  00000+0 0  9990
2 28884   0.0141 350.3699 0001873 275.8626 220.9346  1.00273185 59049
SYRACUSE 3A             
1 28885U 05041B   21341.54610288  .00000130  00000+0  00000+0 0  9998
2 28885   0.6422  95.6005 0002933 162.9574  61.5995  1.00274232 59171
INMARSAT 4-F2           
1 28899U 05044A   21341.40585580  .00000011  00000+0  00000+0 0  9995
2 28899   3.3605  35.5404 0002634 222.8022  28.0616  1.00271850 58942
SPACEWAY 2              
1 28903U 05046B   21341.50903507  .00000105  00000+0  00000+0 0  9991
2 28903   1.4653  89.9229 0000439 353.2745  37.6688  1.00270223 34773
METEOSAT-9 (MSG-2)      
1 28912U 05049B   21341.25387747  .00000019  00000+0  00000+0 0  9992
2 28912   5.5904  67.4737 0000419 168.4065 295.3328  1.00275244 58465
EUTELSAT 174A           
1 28924U 05052A   21341.59840924  .00000011  00000+0  00000+0 0  9999
2 28924   0.0466  55.9606 0006288 196.5999 213.4599  1.00272474 35767
ECHOSTAR 10             
1 28935U 06003A   21341.49424394 -.00000053  00000+0  00000+0 0  9993
2 28935   0.0139  13.8998 0001069 228.1667 262.1479  1.00270833 57904
SPAINSAT                
1 28945U 06007A   21340.87240187 -.00000212  00000+0  00000+0 0  9992
2 28945   0.0041 319.8300 0005398 283.1219 116.9930  1.00269215 57647
EUTELSAT HOTBIRD 13E    
1 28946U 06007B   21341.53929984  .00000089  00000+0  00000+0 0  9997
2 28946   0.0640 156.6999 0005977  85.5450  41.4210  1.00272224 57735
JCSAT-5A                
1 29045U 06010A   21341.59250750 -.00000326  00000+0  00000+0 0  9991
2 29045   0.0411 111.0969 0001477 138.6620 172.2037  1.00271264 57186
ASTRA 1KR               
1 29055U 06012A   21341.32517883  .00000122  00000+0  00000+0 0  9991
2 29055   0.0382 280.7766 0004990 318.9826 332.8138  1.00270119 29157
EWS-G1 (GOES 13)        
1 29155U 06018A   21341.69245522  .00000039  00000+0  00000+0 0  9993
2 29155   0.2992 102.9967 0006737 131.8717 152.5109  1.00272081 56949
EUTELSAT 113 WEST A     
1 29162U 06020A   21341.49979851 -.00000035  00000+0  00000+0 0  9998
2 29162   0.0359 110.1343 0003047 148.0882 245.2080  1.00272247 56903
GALAXY 16 (G-16)        
1 29236U 06023A   21341.48868661 -.00000125  00000+0  00000+0 0  9998
2 29236   0.0281  79.8930 0002421 172.5407 260.9643  1.00271363 56404
EUTELSAT HOTBIRD 13B    
1 29270U 06032A   21341.53929984  .00000088  00000+0  00000+0 0  9995
2 29270   0.0681   9.7616 0003776 262.9534  10.9540  1.00272057 30736
JCSAT-3A                
1 29272U 06033A   21341.59285472 -.00000344  00000+0  00000+0 0  9997
2 29272   0.0164  26.1361 0002233 238.2063 153.6683  1.00269461 31160
SYRACUSE 3B             
1 29273U 06033B   21341.40327086 -.00000042  00000+0  00000+0 0  9991
2 29273   0.0173  56.7885 0003542 189.4726 330.1203  1.00270359 56130
KOREASAT 5 (MUGUNGWHA 5)
1 29349U 06034A   21341.41571146 -.00000356  00000+0  00000+0 0  9993
2 29349   0.0135 278.5693 0001556 320.4496 100.1004  1.00269581 24748
DIRECTV 9S              
1 29494U 06043A   21341.48868661 -.00000111  00000+0  00000+0 0  9991
2 29494   0.0263 117.4639 0003039 142.3264 251.4205  1.00270948 34815
OPTUS D1                
1 29495U 06043B   21341.60396632 -.00000109  00000+0  00000+0 0  9997
2 29495   0.0178   5.1257 0003207 248.4963 200.4028  1.00270317 55552
